[{"OBJECT_NAME":"FLOCK 4G-15","OBJECT_ID":"2025-009BX","EPOCH":"2026-03-09T17:13:37.807680","MEAN_MOTION":15.27266411,"ECCENTRICITY":0.00036988,"INCLINATION":97.4054,"RA_OF_ASC_NODE":151.1927,"ARG_OF_PERICENTER":316.8208,"MEAN_ANOMALY":43.274,"EPHEMERIS_TYPE":0,"CLASSIFICATION_TYPE":"U","NORAD_CAT_ID":62678,"ELEMENT_SET_NO":999,"REV_AT_EPOCH":12135,"BSTAR":0.00047574812,"MEAN_MOTION_DOT":0.00012647,"MEAN_MOTION_DDOT":0},{"OBJECT_NAME":"STARLINK-36503","OBJECT_ID":"2026-005H","EPOCH":"2026-03-09T11:12:36.135360","MEAN_MOTION":15.27585072,"ECCENTRICITY":7.107e-5,"INCLINATION":42.9979,"RA_OF_ASC_NODE":239.131,"ARG_OF_PERICENTER":206.9075,"MEAN_ANOMALY":153.174,"EPHEMERIS_TYPE":0,"CLASSIFICATION_TYPE":"U","NORAD_CAT_ID":67411,"ELEMENT_SET_NO":999,"REV_AT_EPOCH":866,"BSTAR":0.0010101174,"MEAN_MOTION_DOT":0.00027643,"MEAN_MOTION_DDOT":0}]
